IRIDIUM 36              
1 24967U 97056C   24149.55421946  .00000574  00000+0  18795-3 0  9999
2 24967  86.3955 334.5406 0002141  94.5159 265.6283 14.36816925396973
IRIDIUM 39              
1 25042U 97069D   24149.59015874  .00000686  00000+0  17896-3 0  9996
2 25042  86.3939  15.9404 0019413 144.3104 215.9402 14.47966836393283
IRIDIUM 38              
1 25043U 97069E   24149.42864580  .00000553  00000+0  17902-3 0  9996
2 25043  86.3985  34.9650 0000661  42.1819 317.9429 14.37273242390675
IRIDIUM 42              
1 25077U 97077A   24149.45808334  .00000516  00000+0  17232-3 0  9995
2 25077  86.3987  40.6486 0001696  75.1547 284.9837 14.35573002385987
IRIDIUM 44              
1 25078U 97077B   24149.67969206  .00000527  00000+0  16316-3 0  9990
2 25078  86.3980  23.5181 0001923 139.6328 220.5014 14.39407927388408
IRIDIUM 45              
1 25104U 97082A   24149.71134370  .00007805  00000+0  43903-3 0  9995
2 25104  86.3765 231.3844 0158241 310.6162  48.1394 15.02959225394188
IRIDIUM 24              
1 25105U 97082B   24149.79207370  .00000589  00000+0  17636-3 0  9991
2 25105  86.3929 243.0757 0009329 266.2108  93.8025 14.41190157388085
IRIDIUM 51              
1 25262U 98018A   24149.77454715  .00010381  00000+0  48667-3 0  9999
2 25262  86.3973 241.2319 0144391 253.9551 104.5746 15.10645560388705
